FLOCK 4X-42             
1 51018U 22002AL  22203.94601536  .00004929  00000+0  26215-3 0  9996
2 51018  97.4814 270.5700 0010703 301.0638  58.9543 15.15680506 28802
FLOCK 4X-16             
1 51020U 22002AN  22204.60161840  .00004891  00000+0  25993-3 0  9992
2 51020  97.4821 271.2320 0010960 299.4837  60.5302 15.15709020 28901
FLOCK 4X-38             
1 51023U 22002AR  22204.60084287  .00005188  00000+0  27560-3 0  9996
2 51023  97.4871 271.3661 0011342 306.6670  53.3520 15.15691006 28905
FLOCK 4X-32             
1 51024U 22002AS  22204.46742886  .00015447  00000+0  81201-3 0  9998
2 51024  97.4877 271.2463 0011268 303.4182  56.5972 15.15711727 28887
FLOCK 4X-26             
1 51026U 22002AU  22204.46332184  .00006747  00000+0  35707-3 0  9999
2 51026  97.4834 271.1456 0011049 305.0420  54.9775 15.15711057 28882
FLOCK 4X-43             
1 51027U 22002AV  22204.53037011  .00004911  00000+0  26148-3 0  9999
2 51027  97.4830 271.1993 0010883 301.9450  58.0723 15.15635960 28895
FLOCK 4X-13             
1 51028U 22002AW  22204.13037760  .00014355  00000+0  75614-3 0  9992
2 51028  97.4829 270.8103 0011072 302.0585  57.9572 15.15659627 28835
FLOCK 4X-39             
1 51029U 22002AX  22204.26021796  .00005295  00000+0  28027-3 0  9998
2 51029  97.4830 270.9450 0010889 300.1286  59.8867 15.15810737 28857
FLOCK 4X-17             
1 51035U 22002BD  22204.45681513  .00004600  00000+0  24566-3 0  9998
2 51035  97.4865 271.0851 0007118 313.9663  46.0982 15.15595844 28878
FLOCK 4X-10             
1 51037U 22002BF  22204.49676930  .00004181  00000+0  22328-3 0  9999
2 51037  97.4880 271.2204 0009947 309.3422  50.6929 15.15622826 28889
FLOCK 4X-36             
1 51039U 22002BH  22204.43624065  .00005080  00000+0  27040-3 0  9992
2 51039  97.4877 271.1455 0008493 314.0038  46.0494 15.15649162 28872
FLOCK 4X-21             
1 51040U 22002BJ  22204.51158187  .00004211  00000+0  22484-3 0  9992
2 51040  97.4852 271.1365 0007269 310.2910  49.7686 15.15643541 28883
FLOCK 4X-31             
1 51041U 22002BK  22204.44884947  .00004692  00000+0  25021-3 0  9998
2 51041  97.4822 270.9814 0007230 303.6845  56.3698 15.15631987 28875
FLOCK 4X-34             
1 51042U 22002BL  22204.18343113  .00008051  00000+0  42667-3 0  9993
2 51042  97.4880 270.8649 0007793 316.7962  43.2659 15.15627252 28832
FLOCK 4X-6              
1 51043U 22002BM  22204.45025224  .00005128  00000+0  27350-3 0  9998
2 51043  97.4859 271.0782 0007378 312.0177  48.0427 15.15581152 28874
FLOCK 4X-28             
1 51045U 22002BP  22204.44476283  .00007810  00000+0  41380-3 0  9993
2 51045  97.4834 271.0097 0007653 300.6897  59.3581 15.15646742 28879
FLOCK 4X-19             
1 51046U 22002BQ  22204.44394248  .00011556  00000+0  61018-3 0  9996
2 51046  97.4869 271.1069 0007613 314.3642  45.6967 15.15653265 28878
FLOCK 4X-9              
1 51047U 22002BR  22204.50577642  .00004359  00000+0  23283-3 0  9990
2 51047  97.4873 271.1947 0008255 314.8539  45.2022 15.15604826 28880
FLOCK 4X-35             
1 51048U 22002BS  22204.43885953  .00005253  00000+0  27896-3 0  9998
2 51048  97.4809 270.9650 0007628 306.3961  53.6568 15.15721363 28879
FLOCK 4X-11             
1 51049U 22002BT  22204.45073877  .00004043  00000+0  21617-3 0  9996
2 51049  97.4819 270.9753 0007347 311.8945  48.1660 15.15621655 28871
FLOCK 4X-40             
1 51052U 22002BW  22204.45354497  .00005498  00000+0  29316-3 0  9999
2 51052  97.4817 270.9682 0007014 311.8637  48.1997 15.15563243 28874
FLOCK 4X-24             
1 51056U 22002CA  22204.45761043  .00005358  00000+0  28528-3 0  9991
2 51056  97.4828 270.9849 0006982 305.6262  54.4320 15.15623664 28877
FLOCK 4X-4              
1 51064U 22002CJ  22204.17105369  .00010837  00000+0  57163-3 0  9997
2 51064  97.4826 270.7525 0007887 303.2145  56.8331 15.15704285 28835
FLOCK 4X-7              
1 51065U 22002CK  22204.44242889  .00004390  00000+0  23424-3 0  9997
2 51065  97.4858 271.0905 0007797 311.5387  48.5177 15.15644805 28878
FLOCK 4X-14             
1 51066U 22002CL  22204.63590570  .00009579  00000+0  50578-3 0  9996
2 51066  97.4890 271.3662 0008592 314.5560  45.4971 15.15701417 28903
